PLEIADES 1A             
1 38012U 11076F   26190.02136637  .00000052  00000+0  21121-4 0  9992
2 38012  98.1966 264.8305 0001747  83.0823  39.6482 14.58544374775170
PLEIADES 1B             
1 39019U 12068A   26189.96331708 -.00000106  00000+0 -13014-4 0  9993
2 39019  98.1936 264.7150 0001641  82.3136 277.8249 14.58531307724021
